start=new Date('2021-12-18T00:00:00.000Z').valueOf();
sats=[{"EPHEMERIS_TYPE":"0","BSTAR":"0.00004229400000","PERIOD":"95.592","MEAN_MOTION_DDOT":"0.0000000000000","MEAN_MOTION_DOT":"0.00000348","SITE":"AFETR","DECAY_DATE":null,"ELEMENT_SET_NO":"999","REF_FRAME":"TEME","ECCENTRICITY":"0.00020090","TLE_LINE1":"1 47899U 21021AR  21351.73619619  .00000348  00000-0  42294-4 0  9997","EPOCH":"2021-12-17T17:40:07.350816","INCLINATION":"53.0574","COUNTRY_CODE":"US","APOAPSIS":"548.595","TIME_SYSTEM":"UTC","LAUNCH_DATE":"2021-03-14","MEAN_MOTION":"15.06403136","PERIAPSIS":"545.813","MEAN_ELEMENT_THEORY":"SGP4","NORAD_CAT_ID":"47899","REV_AT_EPOCH":"4378","CENTER_NAME":"EARTH","MEAN_ANOMALY":"302.8232","GP_ID":"191903677","OBJECT_TYPE":"PAYLOAD","TLE_LINE2":"2 47899  53.0574 348.2092 0002009  57.2951 302.8232 15.06403136 43782","SEMIMAJOR_AXIS":"6925.339","FILE":"3243045","OBJECT_NAME":"STARLINK-2359","CLASSIFICATION_TYPE":"U","ARG_OF_PERICENTER":"57.2951","RCS_SIZE":"MEDIUM","OBJECT_ID":"2021-021AR","RA_OF_ASC_NODE":"348.2092"},{"COUNTRY_CODE":"US","INCLINATION":"53.0549","EPOCH":"2021-12-17T18:14:36.096864","TLE_LINE1":"1 47900U 21021AS  21351.76014001  .00000259  00000-0  36259-4 0  9992","APOAPSIS":"548.302","LAUNCH_DATE":"2021-03-14","TIME_SYSTEM":"UTC","MEAN_MOTION":"15.06394167","PERIOD":"95.593","BSTAR":"0.00003625900000","EPHEMERIS_TYPE":"0","MEAN_MOTION_DDOT":"0.0000000000000","MEAN_MOTION_DOT":"0.00000259","ELEMENT_SET_NO":"999","DECAY_DATE":null,"SITE":"AFETR","ECCENTRICITY":"0.00015460","REF_FRAME":"TEME","OBJECT_TYPE":"PAYLOAD","GP_ID":"191902425","OBJECT_NAME":"STARLINK-2360","FILE":"3243045","TLE_LINE2":"2 47900  53.0549 358.1064 0001546  52.0501 308.0628 15.06394167 43640","SEMIMAJOR_AXIS":"6925.366","OBJECT_ID":"2021-021AS","RCS_SIZE":"LARGE","ARG_OF_PERICENTER":"52.0501","CLASSIFICATION_TYPE":"U","RA_OF_ASC_NODE":"358.1064","MEAN_ELEMENT_THEORY":"SGP4","PERIAPSIS":"546.161","CENTER_NAME":"EARTH","REV_AT_EPOCH":"4364","NORAD_CAT_ID":"47900","MEAN_ANOMALY":"308.0628"},{"MEAN_MOTION_DOT":"0.00000366","MEAN_MOTION_DDOT":"0.0000000000000","BSTAR":"0.00004346000000","EPHEMERIS_TYPE":"0","PERIOD":"95.592","REF_FRAME":"TEME","ECCENTRICITY":"0.00017960","SITE":"AFETR","DECAY_DATE":null,"ELEMENT_SET_NO":"999","APOAPSIS":"548.459","INCLINATION":"53.0562","TLE_LINE1":"1 47901U 21021AT  21351.71682420  .00000366  00000-0  43460-4 0  9995","EPOCH":"2021-12-17T17:12:13.610880","COUNTRY_CODE":"US","MEAN_MOTION":"15.06399318","TIME_SYSTEM":"UTC","LAUNCH_DATE":"2021-03-14","PERIAPSIS":"545.972","MEAN_ELEMENT_THEORY":"SGP4","MEAN_ANOMALY":"299.1168","REV_AT_EPOCH":"4376","NORAD_CAT_ID":"47901","CENTER_NAME":"EARTH","TLE_LINE2":"2 47901  53.0562 348.2864 0001796  61.0001 299.1168 15.06399318 43761","SEMIMAJOR_AXIS":"6925.351","FILE":"3243045","OBJECT_NAME":"STARLINK-2361","GP_ID":"191902675","OBJECT_TYPE":"PAYLOAD","RA_OF_ASC_NODE":"348.2864","CLASSIFICATION_TYPE":"U","OBJECT_ID":"2021-021AT","ARG_OF_PERICENTER":"61.0001","RCS_SIZE":"LARGE"},{"GP_ID":"191902927","OBJECT_TYPE":"PAYLOAD","TLE_LINE2":"2 47902  53.0562   8.0178 0001593  55.9691 304.1449 15.06401601 43604","SEMIMAJOR_AXIS":"6925.344","FILE":"3243045","OBJECT_NAME":"STARLINK-2362","CLASSIFICATION_TYPE":"U","OBJECT_ID":"2021-021AU","RCS_SIZE":"LARGE","ARG_OF_PERICENTER":"55.9691","RA_OF_ASC_NODE":"8.0178","PERIAPSIS":"546.105","MEAN_ELEMENT_THEORY":"SGP4","REV_AT_EPOCH":"4360","NORAD_CAT_ID":"47902","CENTER_NAME":"EARTH","MEAN_ANOMALY":"304.1449","INCLINATION":"53.0562","EPOCH":"2021-12-17T18:35:51.249408","TLE_LINE1":"1 47902U 21021AU  21351.77489872  .00000325  00000-0  40706-4 0  9993","COUNTRY_CODE":"US","APOAPSIS":"548.312","TIME_SYSTEM":"UTC","LAUNCH_DATE":"2021-03-14","MEAN_MOTION":"15.06401601","EPHEMERIS_TYPE":"0","BSTAR":"0.00004070600000","PERIOD":"95.592","MEAN_MOTION_DDOT":"0.0000000000000","MEAN_MOTION_DOT":"0.00000325","SITE":"AFETR","ELEMENT_SET_NO":"999","DECAY_DATE":null,"REF_FRAME":"TEME","ECCENTRICITY":"0.00015930"},{"MEAN_ANOMALY":"299.5072","CENTER_NAME":"EARTH","NORAD_CAT_ID":"47903","REV_AT_EPOCH":"4411","MEAN_ELEMENT_THEORY":"SGP4","PERIAPSIS":"545.899","RA_OF_ASC_NODE":"348.2278","ARG_OF_PERICENTER":"60.6102","RCS_SIZE":"LARGE","OBJECT_ID":"2021-021AV","CLASSIFICATION_TYPE":"U","OBJECT_NAME":"STARLINK-2363","TLE_LINE2":"2 47903  53.0556 348.2278 0001861  60.6102 299.5072 15.06408388 44111","FILE":"3243045","SEMIMAJOR_AXIS":"6925.323","OBJECT_TYPE":"PAYLOAD","GP_ID":"191903178","ECCENTRICITY":"0.00018610","REF_FRAME":"TEME","DECAY_DATE":null,"ELEMENT_SET_NO":"999","SITE":"AFETR","MEAN_MOTION_DOT":"0.00000601","MEAN_MOTION_DDOT":"0.0000000000000","PERIOD":"95.592","BSTAR":"0.00005921500000","EPHEMERIS_TYPE":"0","MEAN_MOTION":"15.06408388","LAUNCH_DATE":"2021-03-14","TIME_SYSTEM":"UTC","APOAPSIS":"548.477","COUNTRY_CODE":"US","EPOCH":"2021-12-17T17:34:48.452736","TLE_LINE1":"1 47903U 21021AV  21351.73250524  .00000601  00000-0  59215-4 0  9992","INCLINATION":"53.0556"},{"MEAN_ANOMALY":"290.8222","NORAD_CAT_ID":"47904","REV_AT_EPOCH":"4375","CENTER_NAME":"EARTH","PERIAPSIS":"546.101","MEAN_ELEMENT_THEORY":"SGP4","RA_OF_ASC_NODE":"348.2331","CLASSIFICATION_TYPE":"U","ARG_OF_PERICENTER":"69.2940","RCS_SIZE":"LARGE","OBJECT_ID":"2021-021AW","TLE_LINE2":"2 47904  53.0567 348.2331 0001613  69.2940 290.8222 15.06398400 43757","FILE":"3243045","SEMIMAJOR_AXIS":"6925.353","OBJECT_NAME":"STARLINK-2364","GP_ID":"191901926","OBJECT_TYPE":"PAYLOAD","REF_FRAME":"TEME","ECCENTRICITY":"0.00016130","SITE":"AFETR","ELEMENT_SET_NO":"999","DECAY_DATE":null,"MEAN_MOTION_DDOT":"0.0000000000000","MEAN_MOTION_DOT":"-0.00000300","BSTAR":"-0.00000123510000","EPHEMERIS_TYPE":"0","PERIOD":"95.592","MEAN_MOTION":"15.06398400","TIME_SYSTEM":"UTC","LAUNCH_DATE":"2021-03-14","APOAPSIS":"548.336","EPOCH":"2021-12-17T17:29:30.648480","TLE_LINE1":"1 47904U 21021AW  21351.72882695 -.00000300  00000-0 -12351-5 0  9991","INCLINATION":"53.0567","COUNTRY_CODE":"US"},{"OBJECT_NAME":"STARLINK-2365","FILE":"3243045","TLE_LINE2":"2 47905  53.0571 348.2559 0001905  60.6578 299.4601 15.06402255 43885","SEMIMAJOR_AXIS":"6925.342","OBJECT_TYPE":"PAYLOAD","GP_ID":"191902176","RA_OF_ASC_NODE":"348.2559","RCS_SIZE":"LARGE","ARG_OF_PERICENTER":"60.6578","OBJECT_ID":"2021-021AX","CLASSIFICATION_TYPE":"U","MEAN_ELEMENT_THEORY":"SGP4","PERIAPSIS":"545.887","MEAN_ANOMALY":"299.4601","CENTER_NAME":"EARTH","NORAD_CAT_ID":"47905","REV_AT_EPOCH":"4388","APOAPSIS":"548.526","COUNTRY_CODE":"US","TLE_LINE1":"1 47905U 21021AX  21351.72513833  .00002440  00000-0  18265-3 0  9990","EPOCH":"2021-12-17T17:24:11.951712","INCLINATION":"53.0571","MEAN_MOTION":"15.06402255","LAUNCH_DATE":"2021-03-14","TIME_SYSTEM":"UTC","MEAN_MOTION_DDOT":"0.0000000000000","MEAN_MOTION_DOT":"0.00002440","PERIOD":"95.592","EPHEMERIS_TYPE":"0","BSTAR":"0.00018265000000","ECCENTRICITY":"0.00019050","REF_FRAME":"TEME","ELEMENT_SET_NO":"999","DECAY_DATE":null,"SITE":"AFETR"},{"MEAN_MOTION_DDOT":"0.0000000000000","MEAN_MOTION_DOT":"-0.00010756","EPHEMERIS_TYPE":"0","BSTAR":"-0.00006183600000","PERIOD":"91.329","REF_FRAME":"TEME","ECCENTRICITY":"0.00014860","SITE":"AFETR","ELEMENT_SET_NO":"999","DECAY_DATE":null,"APOAPSIS":"340.768","INCLINATION":"53.0505","TLE_LINE1":"1 47906U 21021AY  21351.80577186 -.00010756  00000-0 -61836-4 0  9995","EPOCH":"2021-12-17T19:20:18.688704","COUNTRY_CODE":"US","MEAN_MOTION":"15.76710478","TIME_SYSTEM":"UTC","LAUNCH_DATE":"2021-03-14","PERIAPSIS":"338.772","MEAN_ELEMENT_THEORY":"SGP4","MEAN_ANOMALY":"289.6567","REV_AT_EPOCH":"4483","NORAD_CAT_ID":"47906","CENTER_NAME":"EARTH","TLE_LINE2":"2 47906  53.0505 280.5724 0001486  70.4612 289.6567 15.76710478 44831","SEMIMAJOR_AXIS":"6717.905","FILE":"3243045","OBJECT_NAME":"STARLINK-2366","GP_ID":"191903427","OBJECT_TYPE":"PAYLOAD","RA_OF_ASC_NODE":"280.5724","CLASSIFICATION_TYPE":"U","OBJECT_ID":"2021-021AY","RCS_SIZE":"LARGE","ARG_OF_PERICENTER":"70.4612"},{"MEAN_ELEMENT_THEORY":"SGP4","PERIAPSIS":"546.172","CENTER_NAME":"EARTH","REV_AT_EPOCH":"4341","NORAD_CAT_ID":"47907","MEAN_ANOMALY":"300.0768","OBJECT_TYPE":"PAYLOAD","GP_ID":"191903678","OBJECT_NAME":"STARLINK-2367","TLE_LINE2":"2 47907  53.0549   9.4118 0001475  60.0367 300.0768 15.06406665 43412","SEMIMAJOR_AXIS":"6925.328","FILE":"3243045","OBJECT_ID":"2021-021AZ","RCS_SIZE":"LARGE","ARG_OF_PERICENTER":"60.0367","CLASSIFICATION_TYPE":"U","RA_OF_ASC_NODE":"9.4118","PERIOD":"95.592","BSTAR":"0.00027000000000","EPHEMERIS_TYPE":"0","MEAN_MOTION_DOT":"0.00003743","MEAN_MOTION_DDOT":"0.0000000000000","ELEMENT_SET_NO":"999","DECAY_DATE":null,"SITE":"AFETR","ECCENTRICITY":"0.00014750","REF_FRAME":"TEME","COUNTRY_CODE":"US","INCLINATION":"53.0549","TLE_LINE1":"1 47907U 21021AZ  21351.46896672  .00003743  00000-0  27000-3 0  9992","EPOCH":"2021-12-17T11:15:18.724608","APOAPSIS":"548.215","LAUNCH_DATE":"2021-03-14","TIME_SYSTEM":"UTC","MEAN_MOTION":"15.06406665"},{"REF_FRAME":"TEME","ECCENTRICITY":"0.00017450","SITE":"AFETR","DECAY_DATE":null,"ELEMENT_SET_NO":"999","MEAN_MOTION_DDOT":"0.0000000000000","MEAN_MOTION_DOT":"-0.00001563","EPHEMERIS_TYPE":"0","BSTAR":"-0.00008609300000","PERIOD":"95.593","MEAN_MOTION":"15.06390744","TIME_SYSTEM":"UTC","LAUNCH_DATE":"2021-03-14","APOAPSIS":"548.450","INCLINATION":"53.0577","TLE_LINE1":"1 47908U 21021BA  21351.74173447 -.00001563  00000-0 -86093-4 0  9990","EPOCH":"2021-12-17T17:48:05.858208","COUNTRY_CODE":"US","MEAN_ANOMALY":"308.6466","REV_AT_EPOCH":"4348","NORAD_CAT_ID":"47908","CENTER_NAME":"EARTH","PERIAPSIS":"546.033","MEAN_ELEMENT_THEORY":"SGP4","RA_OF_ASC_NODE":"8.1823","CLASSIFICATION_TYPE":"U","OBJECT_ID":"2021-021BA","RCS_SIZE":"LARGE","ARG_OF_PERICENTER":"51.4680","SEMIMAJOR_AXIS":"6925.377","TLE_LINE2":"2 47908  53.0577   8.1823 0001745  51.4680 308.6466 15.06390744 43481","FILE":"3243045","OBJECT_NAME":"STARLINK-2368","GP_ID":"191902426","OBJECT_TYPE":"PAYLOAD"}];
